start=new Date('2022-01-25T00:00:00.000Z').valueOf();
sats=[{"GP_ID":"194569466","RCS_SIZE":"LARGE","CLASSIFICATION_TYPE":"U","ELEMENT_SET_NO":"999","EPHEMERIS_TYPE":"0","TLE_LINE2":"2 44950  53.0529 241.9168 0001891  74.0705 286.0493 15.06403964113310","TIME_SYSTEM":"UTC","FILE":"3282614","CENTER_NAME":"EARTH","BSTAR":"0.00012953000000","REF_FRAME":"TEME","REV_AT_EPOCH":"11331","DECAY_DATE":null,"OBJECT_NAME":"STARLINK-1125","PERIAPSIS":"545.892","OBJECT_ID":"2020-001AN","PERIOD":"95.592","ARG_OF_PERICENTER":"74.0705","NORAD_CAT_ID":"44950","MEAN_ELEMENT_THEORY":"SGP4","MEAN_MOTION_DOT":"0.00001648","SEMIMAJOR_AXIS":"6925.336","LAUNCH_DATE":"2020-01-07","TLE_LINE1":"1 44950U 20001AN  22024.89259342  .00001648  00000-0  12953-3 0  9999","OBJECT_TYPE":"PAYLOAD","SITE":"AFETR","INCLINATION":"53.0529","MEAN_ANOMALY":"286.0493","ECCENTRICITY":"0.00018910","MEAN_MOTION":"15.06403964","EPOCH":"2022-01-24T21:25:20.071488","MEAN_MOTION_DDOT":"0.0000000000000","COUNTRY_CODE":"US","RA_OF_ASC_NODE":"241.9168","APOAPSIS":"548.511"},{"APOAPSIS":"540.272","COUNTRY_CODE":"US","RA_OF_ASC_NODE":"236.6562","MEAN_MOTION_DDOT":"0.0000000000000","EPOCH":"2022-01-24T21:25:30.904320","MEAN_MOTION":"15.09407045","ECCENTRICITY":"0.00032670","MEAN_ANOMALY":"262.0650","INCLINATION":"53.0024","TLE_LINE1":"1 44951U 20001AP  22024.89271880  .00002119  00000-0  14901-3 0  9990","OBJECT_TYPE":"PAYLOAD","SITE":"AFETR","SEMIMAJOR_AXIS":"6916.148","LAUNCH_DATE":"2020-01-07","MEAN_MOTION_DOT":"0.00002119","MEAN_ELEMENT_THEORY":"SGP4","NORAD_CAT_ID":"44951","ARG_OF_PERICENTER":"98.0710","PERIOD":"95.402","OBJECT_ID":"2020-001AP","PERIAPSIS":"535.753","OBJECT_NAME":"STARLINK-1126","DECAY_DATE":null,"REF_FRAME":"TEME","REV_AT_EPOCH":"11465","CENTER_NAME":"EARTH","BSTAR":"0.00014901000000","FILE":"3282614","TIME_SYSTEM":"UTC","TLE_LINE2":"2 44951  53.0024 236.6562 0003267  98.0710 262.0650 15.09407045114655","ELEMENT_SET_NO":"999","CLASSIFICATION_TYPE":"U","EPHEMERIS_TYPE":"0","RCS_SIZE":"LARGE","GP_ID":"194567722"},{"TLE_LINE2":"2 44952  53.0530 242.0657 0001971  72.6682 287.4522 15.06395018113314","CLASSIFICATION_TYPE":"U","ELEMENT_SET_NO":"999","EPHEMERIS_TYPE":"0","REF_FRAME":"TEME","REV_AT_EPOCH":"11331","CENTER_NAME":"EARTH","BSTAR":"0.00020457000000","TIME_SYSTEM":"UTC","FILE":"3282614","RCS_SIZE":"LARGE","GP_ID":"194567972","OBJECT_ID":"2020-001AQ","PERIAPSIS":"545.864","ARG_OF_PERICENTER":"72.6682","PERIOD":"95.592","OBJECT_NAME":"STARLINK-1117","DECAY_DATE":null,"SEMIMAJOR_AXIS":"6925.364","LAUNCH_DATE":"2020-01-07","MEAN_MOTION_DOT":"0.00002766","OBJECT_TYPE":"PAYLOAD","TLE_LINE1":"1 44952U 20001AQ  22024.85944051  .00002766  00000-0  20457-3 0  9995","SITE":"AFETR","NORAD_CAT_ID":"44952","MEAN_ELEMENT_THEORY":"SGP4","MEAN_MOTION_DDOT":"0.0000000000000","APOAPSIS":"548.594","RA_OF_ASC_NODE":"242.0657","COUNTRY_CODE":"US","ECCENTRICITY":"0.00019710","MEAN_ANOMALY":"287.4522","INCLINATION":"53.0530","EPOCH":"2022-01-24T20:37:35.660064","MEAN_MOTION":"15.06395018"},{"MEAN_MOTION":"15.06393575","EPOCH":"2022-01-24T21:02:46.609440","MEAN_ANOMALY":"288.1562","INCLINATION":"53.0514","ECCENTRICITY":"0.00018440","RA_OF_ASC_NODE":"241.9883","COUNTRY_CODE":"US","APOAPSIS":"548.510","MEAN_MOTION_DDOT":"0.0000000000000","MEAN_ELEMENT_THEORY":"SGP4","NORAD_CAT_ID":"44953","SITE":"AFETR","TLE_LINE1":"1 44953U 20001AR  22024.87692835  .00002486  00000-0  18574-3 0  9994","OBJECT_TYPE":"PAYLOAD","MEAN_MOTION_DOT":"0.00002486","LAUNCH_DATE":"2020-01-07","SEMIMAJOR_AXIS":"6925.368","DECAY_DATE":null,"OBJECT_NAME":"STARLINK-1124","PERIOD":"95.593","ARG_OF_PERICENTER":"71.9628","PERIAPSIS":"545.956","OBJECT_ID":"2020-001AR","GP_ID":"194569223","RCS_SIZE":"LARGE","FILE":"3282614","TIME_SYSTEM":"UTC","REF_FRAME":"TEME","REV_AT_EPOCH":"11460","CENTER_NAME":"EARTH","BSTAR":"0.00018574000000","ELEMENT_SET_NO":"999","EPHEMERIS_TYPE":"0","CLASSIFICATION_TYPE":"U","TLE_LINE2":"2 44953  53.0514 241.9883 0001844  71.9628 288.1562 15.06393575114608"},{"DECAY_DATE":null,"OBJECT_NAME":"STARLINK-1066","PERIAPSIS":"545.632","OBJECT_ID":"2020-001AS","PERIOD":"95.592","ARG_OF_PERICENTER":"80.2346","GP_ID":"194568967","RCS_SIZE":"LARGE","ELEMENT_SET_NO":"999","CLASSIFICATION_TYPE":"U","EPHEMERIS_TYPE":"0","TLE_LINE2":"2 44954  53.0525 221.9189 0002243  80.2346 279.8897 15.06409324113542","TIME_SYSTEM":"UTC","FILE":"3282614","CENTER_NAME":"EARTH","BSTAR":"0.00012425000000","REF_FRAME":"TEME","REV_AT_EPOCH":"11354","MEAN_ANOMALY":"279.8897","INCLINATION":"53.0525","ECCENTRICITY":"0.00022430","MEAN_MOTION":"15.06409324","EPOCH":"2022-01-24T21:22:41.289024","MEAN_MOTION_DDOT":"0.0000000000000","COUNTRY_CODE":"US","RA_OF_ASC_NODE":"221.9189","APOAPSIS":"548.738","NORAD_CAT_ID":"44954","MEAN_ELEMENT_THEORY":"SGP4","MEAN_MOTION_DOT":"0.00001570","SEMIMAJOR_AXIS":"6925.320","LAUNCH_DATE":"2020-01-07","SITE":"AFETR","TLE_LINE1":"1 44954U 20001AS  22024.89075566  .00001570  00000-0  12425-3 0  9995","OBJECT_TYPE":"PAYLOAD"},{"EPHEMERIS_TYPE":"0","ELEMENT_SET_NO":"999","CLASSIFICATION_TYPE":"U","TLE_LINE2":"2 44955  53.0542 222.5007 0001979  71.4006 288.7198 15.06401260113520","FILE":"3282614","TIME_SYSTEM":"UTC","REF_FRAME":"TEME","REV_AT_EPOCH":"11352","BSTAR":"0.00008768700000","CENTER_NAME":"EARTH","GP_ID":"194568222","RCS_SIZE":"LARGE","PERIAPSIS":"545.839","OBJECT_ID":"2020-001AT","PERIOD":"95.592","ARG_OF_PERICENTER":"71.4006","DECAY_DATE":null,"OBJECT_NAME":"STARLINK-1069","MEAN_MOTION_DOT":"0.00001025","LAUNCH_DATE":"2020-01-07","SEMIMAJOR_AXIS":"6925.345","SITE":"AFETR","TLE_LINE1":"1 44955U 20001AT  22024.76542913  .00001025  00000-0  87687-4 0  9995","OBJECT_TYPE":"PAYLOAD","NORAD_CAT_ID":"44955","MEAN_ELEMENT_THEORY":"SGP4","MEAN_MOTION_DDOT":"0.0000000000000","COUNTRY_CODE":"US","RA_OF_ASC_NODE":"222.5007","APOAPSIS":"548.580","INCLINATION":"53.0542","MEAN_ANOMALY":"288.7198","ECCENTRICITY":"0.00019790","MEAN_MOTION":"15.06401260","EPOCH":"2022-01-24T18:22:13.076832"},{"TIME_SYSTEM":"UTC","FILE":"3282614","REV_AT_EPOCH":"11360","REF_FRAME":"TEME","BSTAR":"0.00008095300000","CENTER_NAME":"EARTH","ELEMENT_SET_NO":"999","EPHEMERIS_TYPE":"0","CLASSIFICATION_TYPE":"U","TLE_LINE2":"2 44956  53.0536 221.9148 0002131  76.7186 283.4040 15.06397634113607","GP_ID":"194568472","RCS_SIZE":"LARGE","PERIOD":"95.592","ARG_OF_PERICENTER":"76.7186","PERIAPSIS":"545.745","OBJECT_ID":"2020-001AU","DECAY_DATE":null,"OBJECT_NAME":"STARLINK-1070","TLE_LINE1":"1 44956U 20001AU  22024.89443839  .00000924  00000-0  80953-4 0  9993","OBJECT_TYPE":"PAYLOAD","SITE":"AFETR","MEAN_MOTION_DOT":"0.00000924","SEMIMAJOR_AXIS":"6925.356","LAUNCH_DATE":"2020-01-07","MEAN_ELEMENT_THEORY":"SGP4","NORAD_CAT_ID":"44956","COUNTRY_CODE":"US","RA_OF_ASC_NODE":"221.9148","APOAPSIS":"548.697","MEAN_MOTION_DDOT":"0.0000000000000","MEAN_MOTION":"15.06397634","EPOCH":"2022-01-24T21:27:59.476896","MEAN_ANOMALY":"283.4040","INCLINATION":"53.0536","ECCENTRICITY":"0.00021310"},{"MEAN_MOTION":"15.06392181","EPOCH":"2022-01-24T22:05:09.212064","MEAN_ANOMALY":"283.8921","INCLINATION":"53.0540","ECCENTRICITY":"0.00021350","COUNTRY_CODE":"US","RA_OF_ASC_NODE":"221.8021","APOAPSIS":"548.716","MEAN_MOTION_DDOT":"0.0000000000000","MEAN_ELEMENT_THEORY":"SGP4","NORAD_CAT_ID":"44957","SITE":"AFETR","TLE_LINE1":"1 44957U 20001AV  22024.92024551  .00000646  00000-0  62299-4 0  9998","OBJECT_TYPE":"PAYLOAD","MEAN_MOTION_DOT":"0.00000646","LAUNCH_DATE":"2020-01-07","SEMIMAJOR_AXIS":"6925.373","DECAY_DATE":null,"OBJECT_NAME":"STARLINK-1074","PERIOD":"95.593","ARG_OF_PERICENTER":"76.2306","PERIAPSIS":"545.759","OBJECT_ID":"2020-001AV","GP_ID":"194568724","RCS_SIZE":"LARGE","TIME_SYSTEM":"UTC","FILE":"3282614","BSTAR":"0.00006229900000","CENTER_NAME":"EARTH","REF_FRAME":"TEME","REV_AT_EPOCH":"11360","ELEMENT_SET_NO":"999","EPHEMERIS_TYPE":"0","CLASSIFICATION_TYPE":"U","TLE_LINE2":"2 44957  53.0540 221.8021 0002135  76.2306 283.8921 15.06392181113609"},{"MEAN_ELEMENT_THEORY":"SGP4","NORAD_CAT_ID":"44959","OBJECT_TYPE":"PAYLOAD","TLE_LINE1":"1 44959U 20001AX  22024.86859024  .00002466  00000-0  18425-3 0  9997","SITE":"AFETR","MEAN_MOTION_DOT":"0.00002466","LAUNCH_DATE":"2020-01-07","SEMIMAJOR_AXIS":"6925.249","MEAN_MOTION":"15.06432355","EPOCH":"2022-01-24T20:50:46.196736","INCLINATION":"53.0514","MEAN_ANOMALY":"286.0488","ECCENTRICITY":"0.00022270","RA_OF_ASC_NODE":"222.0300","COUNTRY_CODE":"US","APOAPSIS":"548.657","MEAN_MOTION_DDOT":"0.0000000000000","GP_ID":"194569467","RCS_SIZE":"LARGE","TIME_SYSTEM":"UTC","FILE":"3282614","REF_FRAME":"TEME","REV_AT_EPOCH":"11359","BSTAR":"0.00018425000000","CENTER_NAME":"EARTH","CLASSIFICATION_TYPE":"U","ELEMENT_SET_NO":"999","EPHEMERIS_TYPE":"0","TLE_LINE2":"2 44959  53.0514 222.0300 0002227  74.0746 286.0488 15.06432355113590","DECAY_DATE":null,"OBJECT_NAME":"STARLINK-1076","PERIOD":"95.590","ARG_OF_PERICENTER":"74.0746","PERIAPSIS":"545.572","OBJECT_ID":"2020-001AX"},{"GP_ID":"194567723","RCS_SIZE":"LARGE","EPHEMERIS_TYPE":"0","ELEMENT_SET_NO":"999","CLASSIFICATION_TYPE":"U","TLE_LINE2":"2 44961  53.0539 221.6976 0002439  78.5291 281.5972 15.06406754113618","TIME_SYSTEM":"UTC","FILE":"3282614","REV_AT_EPOCH":"11361","REF_FRAME":"TEME","BSTAR":"0.00004891600000","CENTER_NAME":"EARTH","DECAY_DATE":null,"OBJECT_NAME":"STARLINK-1080","PERIAPSIS":"545.504","OBJECT_ID":"2020-001AZ","PERIOD":"95.592","ARG_OF_PERICENTER":"78.5291","NORAD_CAT_ID":"44961","MEAN_ELEMENT_THEORY":"SGP4","MEAN_MOTION_DOT":"0.00000447","LAUNCH_DATE":"2020-01-07","SEMIMAJOR_AXIS":"6925.328","TLE_LINE1":"1 44961U 20001AZ  22024.94236342  .00000447  00000-0  48916-4 0  9997","OBJECT_TYPE":"PAYLOAD","SITE":"AFETR","MEAN_ANOMALY":"281.5972","INCLINATION":"53.0539","ECCENTRICITY":"0.00024390","MEAN_MOTION":"15.06406754","EPOCH":"2022-01-24T22:37:00.199488","MEAN_MOTION_DDOT":"0.0000000000000","COUNTRY_CODE":"US","RA_OF_ASC_NODE":"221.6976","APOAPSIS":"548.882"}];
